ONEWEB-0645             
1 55809U 23029P   24275.19317188  .00000086  00000+0  18362-3 0  9997
2 55809  87.9121  69.0843 0002030 108.9849 251.1504 13.19724202 77295
ONEWEB-0646             
1 55810U 23029Q   24274.99572035  .00000305  00000+0  72822-3 0  9995
2 55810  87.9122  69.1211 0002080  95.0711 265.0659 13.19723793 77252
ONEWEB-0648             
1 55811U 23029R   24275.40327455 -.00000014  00000+0 -73280-4 0  9996
2 55811  87.8981  53.7457 0002615 115.1507 244.9894 13.14503253 78156
ONEWEB-0649             
1 55812U 23029S   24274.88281198 -.00000030  00000+0 -10672-3 0  9994
2 55812  87.9113  69.1375 0002181 106.7881 253.3491 13.19724325 76586
ONEWEB-0650             
1 55813U 23029T   24275.48460707  .00000121  00000+0  27073-3 0  9999
2 55813  87.9119  69.0214 0002036  95.7805 264.3560 13.19724234 77327
ONEWEB-0652             
1 55814U 23029U   24275.46036259  .00000245  00000+0  62523-3 0  9995
2 55814  87.8982  53.7457 0001575  95.8125 264.3184 13.14501474 78111
ONEWEB-0653             
1 55815U 23029V   24275.44450722  .00000192  00000+0  48252-3 0  9993
2 55815  87.8985  53.7313 0001425 104.5159 255.6129 13.14503857 78147
ONEWEB-0654             
1 55816U 23029W   24275.43974954  .00000061  00000+0  13105-3 0  9995
2 55816  87.8977  53.7394 0001234  91.4109 268.7162 13.14503862 78165
